ONEWEB-0697             
1 61603U 24188K   26028.98308032  .00000038  00000+0  72429-4 0  9998
2 61603  87.8810  48.7739 0001683 119.2349 240.8948 13.11414132 66205
ONEWEB-0698             
1 61604U 24188L   26028.96105129  .00000574  00000+0  15838-2 0  9993
2 61604  87.8813  48.7937 0000827 123.7819 236.3387 13.11416599 66228
ONEWEB-0699             
1 61605U 24188M   26028.78671982  .00000518  00000+0  14471-2 0  9999
2 61605  87.8763  64.0447 0001591 118.5215 241.6073 13.10372123 65055
ONEWEB-0700             
1 61606U 24188N   26028.78839299  .00000282  00000+0  77237-3 0  9995
2 61606  87.8775  63.9344 0002071 116.4975 243.6365 13.10374863 65045
ONEWEB-0701             
1 61607U 24188P   26028.80496068 -.00000434  00000+0 -12803-2 0  9990
2 61607  87.8762  64.0409 0001627 124.6598 235.4683 13.10372884 65058
ONEWEB-0702             
1 61608U 24188Q   26028.77792328 -.00000398  00000+0 -11587-2 0  9992
2 61608  87.8829  48.7126 0001981 124.0282 236.1035 13.11417825 66219
ONEWEB-0704             
1 61609U 24188R   26028.64065748 -.00001293  00000+0 -37406-2 0  9991
2 61609  87.8770  64.0451 0002105 124.2925 235.8402 13.10358485 65018
ONEWEB-0705             
1 61610U 24188S   26028.79833413 -.00000186  00000+0 -56933-3 0  9998
2 61610  87.8765  64.0311 0002950 108.0887 252.0562 13.10371154 57202
